[{"OBJECT_NAME":"SL-8 R/B","OBJECT_ID":"1991-006B","EPOCH":"2026-03-12T07:27:00.523008","MEAN_MOTION":13.77494703,"ECCENTRICITY":0.00229254,"INCLINATION":82.9465,"RA_OF_ASC_NODE":168.0977,"ARG_OF_PERICENTER":31.1742,"MEAN_ANOMALY":22.6836,"EPHEMERIS_TYPE":0,"CLASSIFICATION_TYPE":"U","NORAD_CAT_ID":21088,"ELEMENT_SET_NO":999,"REV_AT_EPOCH":76443,"BSTAR":6.7993516e-5,"MEAN_MOTION_DOT":8.3e-7,"MEAN_MOTION_DDOT":0},{"OBJECT_NAME":"OKEAN-3","OBJECT_ID":"1991-039A","EPOCH":"2026-03-12T04:56:23.504640","MEAN_MOTION":15.04827213,"ECCENTRICITY":0.00137267,"INCLINATION":82.5197,"RA_OF_ASC_NODE":334.406,"ARG_OF_PERICENTER":328.3821,"MEAN_ANOMALY":31.658,"EPHEMERIS_TYPE":0,"CLASSIFICATION_TYPE":"U","NORAD_CAT_ID":21397,"ELEMENT_SET_NO":999,"REV_AT_EPOCH":86541,"BSTAR":0.00029506668,"MEAN_MOTION_DOT":4.201e-5,"MEAN_MOTION_DDOT":0},{"OBJECT_NAME":"COSMOS 2151","OBJECT_ID":"1991-042A","EPOCH":"2026-03-12T06:50:05.331552","MEAN_MOTION":15.00115055,"ECCENTRICITY":0.00139023,"INCLINATION":82.493,"RA_OF_ASC_NODE":81.1722,"ARG_OF_PERICENTER":55.8998,"MEAN_ANOMALY":304.3543,"EPHEMERIS_TYPE":0,"CLASSIFICATION_TYPE":"U","NORAD_CAT_ID":21422,"ELEMENT_SET_NO":999,"REV_AT_EPOCH":86358,"BSTAR":0.00017929458,"MEAN_MOTION_DOT":2.266e-5,"MEAN_MOTION_DDOT":0},{"OBJECT_NAME":"SL-14 R/B","OBJECT_ID":"1991-042B","EPOCH":"2026-03-11T22:02:44.088576","MEAN_MOTION":14.81832118,"ECCENTRICITY":0.0015906,"INCLINATION":82.4929,"RA_OF_ASC_NODE":218.0922,"ARG_OF_PERICENTER":230.7794,"MEAN_ANOMALY":129.2009,"EPHEMERIS_TYPE":0,"CLASSIFICATION_TYPE":"U","NORAD_CAT_ID":21423,"ELEMENT_SET_NO":999,"REV_AT_EPOCH":85340,"BSTAR":7.0352e-5,"MEAN_MOTION_DOT":5.8e-6,"MEAN_MOTION_DDOT":0},{"OBJECT_NAME":"ERS-1","OBJECT_ID":"1991-050A","EPOCH":"2026-03-12T01:27:24.989760","MEAN_MOTION":14.39451323,"ECCENTRICITY":0.00317516,"INCLINATION":98.7879,"RA_OF_ASC_NODE":89.3548,"ARG_OF_PERICENTER":193.3487,"MEAN_ANOMALY":166.6863,"EPHEMERIS_TYPE":0,"CLASSIFICATION_TYPE":"U","NORAD_CAT_ID":21574,"ELEMENT_SET_NO":999,"REV_AT_EPOCH":81607,"BSTAR":0.00012760534,"MEAN_MOTION_DOT":3.53e-6,"MEAN_MOTION_DDOT":0},{"OBJECT_NAME":"ARIANE 40 R/B","OBJECT_ID":"1991-050F","EPOCH":"2026-03-12T02:32:39.899040","MEAN_MOTION":14.42895392,"ECCENTRICITY":0.00042453,"INCLINATION":98.2007,"RA_OF_ASC_NODE":123.2517,"ARG_OF_PERICENTER":75.8736,"MEAN_ANOMALY":284.2926,"EPHEMERIS_TYPE":0,"CLASSIFICATION_TYPE":"U","NORAD_CAT_ID":21610,"ELEMENT_SET_NO":999,"REV_AT_EPOCH":81934,"BSTAR":0.00010670966,"MEAN_MOTION_DOT":3.15e-6,"MEAN_MOTION_DDOT":0},{"OBJECT_NAME":"INTERCOSMOS 25","OBJECT_ID":"1991-086A","EPOCH":"2026-03-12T03:13:25.583232","MEAN_MOTION":12.12007728,"ECCENTRICITY":0.148693,"INCLINATION":82.6045,"RA_OF_ASC_NODE":308.5308,"ARG_OF_PERICENTER":111.6672,"MEAN_ANOMALY":264.908,"EPHEMERIS_TYPE":0,"CLASSIFICATION_TYPE":"U","NORAD_CAT_ID":21819,"ELEMENT_SET_NO":999,"REV_AT_EPOCH":49698,"BSTAR":0.0003773062,"MEAN_MOTION_DOT":1.961e-5,"MEAN_MOTION_DDOT":0},{"OBJECT_NAME":"SL-8 R/B","OBJECT_ID":"1992-008B","EPOCH":"2026-03-12T06:56:43.287360","MEAN_MOTION":13.75969807,"ECCENTRICITY":0.00356447,"INCLINATION":82.9222,"RA_OF_ASC_NODE":265.8439,"ARG_OF_PERICENTER":126.2922,"MEAN_ANOMALY":46.1592,"EPHEMERIS_TYPE":0,"CLASSIFICATION_TYPE":"U","NORAD_CAT_ID":21876,"ELEMENT_SET_NO":999,"REV_AT_EPOCH":70977,"BSTAR":-2.889543e-6,"MEAN_MOTION_DOT":1.3e-7,"MEAN_MOTION_DDOT":0},{"OBJECT_NAME":"SL-8 R/B","OBJECT_ID":"1992-020B","EPOCH":"2026-03-12T07:28:19.059744","MEAN_MOTION":13.75549842,"ECCENTRICITY":0.0027624,"INCLINATION":82.9332,"RA_OF_ASC_NODE":151.8153,"ARG_OF_PERICENTER":291.1629,"MEAN_ANOMALY":132.4204,"EPHEMERIS_TYPE":0,"CLASSIFICATION_TYPE":"U","NORAD_CAT_ID":21938,"ELEMENT_SET_NO":999,"REV_AT_EPOCH":70149,"BSTAR":5.312973e-5,"MEAN_MOTION_DOT":6.6e-7,"MEAN_MOTION_DDOT":0},{"OBJECT_NAME":"USA 81","OBJECT_ID":"1992-023A","EPOCH":"2026-03-12T05:50:41.898336","MEAN_MOTION":14.32368895,"ECCENTRICITY":0.00023943,"INCLINATION":85.008,"RA_OF_ASC_NODE":129.968,"ARG_OF_PERICENTER":75.9061,"MEAN_ANOMALY":284.2398,"EPHEMERIS_TYPE":0,"CLASSIFICATION_TYPE":"U","NORAD_CAT_ID":21949,"ELEMENT_SET_NO":999,"REV_AT_EPOCH":9515,"BSTAR":6.0502524e-5,"MEAN_MOTION_DOT":1.83e-6,"MEAN_MOTION_DDOT":0},{"OBJECT_NAME":"COSMOS 2219","OBJECT_ID":"1992-076A","EPOCH":"2026-03-12T06:42:53.252928","MEAN_MOTION":14.14093345,"ECCENTRICITY":0.00188455,"INCLINATION":71.0639,"RA_OF_ASC_NODE":12.6533,"ARG_OF_PERICENTER":203.5025,"MEAN_ANOMALY":156.5238,"EPHEMERIS_TYPE":0,"CLASSIFICATION_TYPE":"U","NORAD_CAT_ID":22219,"ELEMENT_SET_NO":999,"REV_AT_EPOCH":71874,"BSTAR":5.6673877e-5,"MEAN_MOTION_DOT":6.1e-7,"MEAN_MOTION_DDOT":0},{"OBJECT_NAME":"SL-16 R/B","OBJECT_ID":"1992-076B","EPOCH":"2026-03-12T07:25:59.884896","MEAN_MOTION":14.1685925,"ECCENTRICITY":0.00104759,"INCLINATION":71.0009,"RA_OF_ASC_NODE":182.8551,"ARG_OF_PERICENTER":91.5885,"MEAN_ANOMALY":334.4302,"EPHEMERIS_TYPE":0,"CLASSIFICATION_TYPE":"U","NORAD_CAT_ID":22220,"ELEMENT_SET_NO":999,"REV_AT_EPOCH":72220,"BSTAR":-4.322982e-5,"MEAN_MOTION_DOT":-1.35e-6,"MEAN_MOTION_DDOT":0},{"OBJECT_NAME":"COSMOS 2221","OBJECT_ID":"1992-080A","EPOCH":"2026-03-12T01:04:44.683104","MEAN_MOTION":14.96210282,"ECCENTRICITY":0.00142487,"INCLINATION":82.5012,"RA_OF_ASC_NODE":276.8245,"ARG_OF_PERICENTER":179.0275,"MEAN_ANOMALY":181.0977,"EPHEMERIS_TYPE":0,"CLASSIFICATION_TYPE":"U","NORAD_CAT_ID":22236,"ELEMENT_SET_NO":999,"REV_AT_EPOCH":78114,"BSTAR":0.00018855433,"MEAN_MOTION_DOT":2.155e-5,"MEAN_MOTION_DDOT":0},{"OBJECT_NAME":"SL-16 R/B","OBJECT_ID":"1992-093B","EPOCH":"2026-03-12T05:06:39.354336","MEAN_MOTION":14.15447267,"ECCENTRICITY":0.00063829,"INCLINATION":71.0242,"RA_OF_ASC_NODE":358.9692,"ARG_OF_PERICENTER":291.0584,"MEAN_ANOMALY":68.9856,"EPHEMERIS_TYPE":0,"CLASSIFICATION_TYPE":"U","NORAD_CAT_ID":22285,"ELEMENT_SET_NO":999,"REV_AT_EPOCH":71351,"BSTAR":-5.104601e-5,"MEAN_MOTION_DOT":-1.47e-6,"MEAN_MOTION_DDOT":0},{"OBJECT_NAME":"COSMOS 2228","OBJECT_ID":"1992-094A","EPOCH":"2026-03-12T06:14:46.390560","MEAN_MOTION":14.97205399,"ECCENTRICITY":0.00166956,"INCLINATION":82.5159,"RA_OF_ASC_NODE":234.8488,"ARG_OF_PERICENTER":295.4142,"MEAN_ANOMALY":64.5352,"EPHEMERIS_TYPE":0,"CLASSIFICATION_TYPE":"U","NORAD_CAT_ID":22286,"ELEMENT_SET_NO":999,"REV_AT_EPOCH":77644,"BSTAR":0.00027576831,"MEAN_MOTION_DOT":3.223e-5,"MEAN_MOTION_DDOT":0},{"OBJECT_NAME":"SL-16 R/B","OBJECT_ID":"1993-016B","EPOCH":"2026-03-12T02:41:40.203168","MEAN_MOTION":14.15309273,"ECCENTRICITY":0.00119968,"INCLINATION":71.0078,"RA_OF_ASC_NODE":210.0926,"ARG_OF_PERICENTER":310.9159,"MEAN_ANOMALY":49.0924,"EPHEMERIS_TYPE":0,"CLASSIFICATION_TYPE":"U","NORAD_CAT_ID":22566,"ELEMENT_SET_NO":999,"REV_AT_EPOCH":70251,"BSTAR":2.5547557e-5,"MEAN_MOTION_DOT":2.0e-8,"MEAN_MOTION_DDOT":0},{"OBJECT_NAME":"COSMOS 2242","OBJECT_ID":"1993-024A","EPOCH":"2026-03-12T01:01:50.531808","MEAN_MOTION":14.96558951,"ECCENTRICITY":0.00150609,"INCLINATION":82.5156,"RA_OF_ASC_NODE":264.465,"ARG_OF_PERICENTER":300.3132,"MEAN_ANOMALY":59.66,"EPHEMERIS_TYPE":0,"CLASSIFICATION_TYPE":"U","NORAD_CAT_ID":22626,"ELEMENT_SET_NO":999,"REV_AT_EPOCH":78074,"BSTAR":0.00014985832,"MEAN_MOTION_DOT":1.734e-5,"MEAN_MOTION_DDOT":0}]
